; Time to print!!!!!
; GCode created with FullControl - tell us what you're printing!
; info@fullcontrol.xyz or tag FullControlXYZ on Twitter/Instagram/LinkedIn/Reddit/TikTok
M83 ; relative extrusion
M140 S50 ; set bed temp and continue
M104 S210 ; set hotend temp and continue
M190 S50 ; set bed temp and wait
M109 S210  ; set hotend temp and wait
M106 S255 ; set fan speed
M220 S100 ; set speed factor override percentage
M221 S100 ; set extrude factor override percentage
;-----
; START OF PRIMER PROCEDURE
;-----
G0 F8000 X10.0 Y12.0 Z0.24
G1 F500 X110.0 E6.65203
G1 Y14.0 E0.133041
G1 X10.0 E6.65203
G1 Y16.0 E0.133041
G1 X50.0 E2.66081
G1 Y40.0671 E1.60095
;-----
; END OF PRIMER PROCEDURE
;-----

G1 X58.523 Y45.0792 E0.657721
G1 X58.4439 Y54.8751 E0.651644
G1 X50.0 Y59.6588 E0.645568
G1 X41.7143 Y54.7837 E0.639491
G1 X41.7934 Y45.2619 E0.633415
G1 X50.0 Y40.6152 E0.627339
G1 X58.0483 Y45.3533 E0.621262
G1 X57.9692 Y54.601 E0.615186
G1 X50.0 Y59.1107 E0.60911
G1 X42.189 Y54.5097 E0.603033
G1 X42.2681 Y45.536 E0.596957
G1 X50.0 Y41.1633 E0.59088
G1 X57.5737 Y45.6273 E0.584804
G1 X57.4946 Y54.327 E0.578728
G1 X50.0 Y58.5626 E0.572651
G1 X42.6637 Y54.2356 E0.566575
G1 X42.7428 Y45.81 E0.560499
G1 X50.0 Y41.7114 E0.554422
G1 X57.099 Y45.9014 E0.548346
G1 X57.0199 Y54.0529 E0.54227
G1 X50.0 Y58.0145 E0.536193
G1 X43.1383 Y53.9616 E0.530117
G1 X43.2174 Y46.0841 E0.524041
G1 X50.0 Y42.2595 E0.517964
G1 X56.6243 Y46.1754 E0.511888
G1 X56.5452 Y53.7789 E0.505812
G1 X50.0 Y57.4664 E0.499736
G1 X43.613 Y53.6875 E0.493659
G1 X43.6921 Y46.3581 E0.487583
G1 X50.0 Y42.8076 E0.481507
G1 X56.1497 Y46.4495 E0.475431
G1 X56.0706 Y53.5048 E0.469354
G1 X50.0 Y56.9183 E0.463278
G1 X44.0877 Y53.4135 E0.457202
G1 X44.1668 Y46.6322 E0.451126
G1 X50.0 Y43.3557 E0.44505
G1 X55.675 Y46.7235 E0.438973
G1 X55.5959 Y53.2308 E0.432897
G1 X50.0 Y56.3702 E0.426821
G1 X44.5623 Y53.1394 E0.420745
G1 X44.6414 Y46.9062 E0.414669
G1 X50.0 Y43.9038 E0.408593
G1 X55.2003 Y46.9976 E0.402517
G1 X55.1212 Y52.9567 E0.396441
G1 X50.0 Y55.8221 E0.390365
G1 X45.037 Y52.8654 E0.384289
G1 X45.1161 Y47.1803 E0.378212
G1 X50.0 Y44.4519 E0.372136
G1 X54.7257 Y47.2716 E0.36606
G1 X54.6466 Y52.6827 E0.359985
G1 X50.0 Y55.274 E0.353909
G1 X45.5117 Y52.5913 E0.347833
G1 X45.5908 Y47.4543 E0.341757
G1 X50.0 Y45.0 E0.335681
G1 X50.0 E0.0
G1 X54.3301 Y47.5 Z0.29 E0.332618
G1 Y52.5 Z0.34 E0.332618
G1 X50.0 Y55.0 Z0.39 E0.332618
G1 X45.6699 Y52.5 Z0.44 E0.332618
G1 X45.6699 Y47.5 Z0.49 E0.332618
G1 X50.0 Y45.0 Z0.54 E0.332618
G1 X54.3301 Y47.5 Z0.59 E0.332618
G1 X54.3301 Y52.5 Z0.64 E0.332618
G1 X50.0 Y55.0 Z0.69 E0.332618
G1 X45.6699 Y52.5 Z0.74 E0.332618
G1 X45.6699 Y47.5 Z0.79 E0.332618
G1 X50.0 Y45.0 Z0.84 E0.332618
G1 X54.3301 Y47.5 Z0.89 E0.332618
G1 Y52.5 Z0.94 E0.332618
G1 X50.0 Y55.0 Z0.99 E0.332618
G1 X45.6699 Y52.5 Z1.04 E0.332618
G1 X45.6699 Y47.5 Z1.09 E0.332618
G1 X50.0 Y45.0 Z1.14 E0.332618
G1 X54.3301 Y47.5 Z1.19 E0.332618
G1 X54.3301 Y52.5 Z1.24 E0.332618
G1 X50.0 Y55.0 Z1.29 E0.332618
G1 X45.6699 Y52.5 Z1.34 E0.332618
G1 X45.6699 Y47.5 Z1.39 E0.332618
G1 X50.0 Y45.0 Z1.44 E0.332618
G1 X54.3301 Y47.5 Z1.49 E0.332618
G1 X54.3301 Y52.5 Z1.54 E0.332618
G1 X50.0 Y55.0 Z1.59 E0.332618
G1 X45.6699 Y52.5 Z1.64 E0.332618
G1 X45.6699 Y47.5 Z1.69 E0.332618
G1 X50.0 Y45.0 Z1.74 E0.332618
G1 X54.3301 Y47.5 Z1.79 E0.332618
G1 X54.3301 Y52.5 Z1.84 E0.332618
G1 X50.0 Y55.0 Z1.89 E0.332618
G1 X45.6699 Y52.5 Z1.94 E0.332618
G1 X45.6699 Y47.5 Z1.99 E0.332618
G1 X50.0 Y45.0 Z2.04 E0.332618
G1 X54.3301 Y47.5 Z2.09 E0.332618
G1 X54.3301 Y52.5 Z2.14 E0.332618
G1 X50.0 Y55.0 Z2.19 E0.332618
G1 X45.6699 Y52.5 Z2.24 E0.332618
G1 X45.6699 Y47.5 Z2.29 E0.332618
G1 X50.0 Y45.0 Z2.34 E0.332618
G1 X54.3301 Y47.5 Z2.39 E0.332618
G1 X54.3301 Y52.5 Z2.44 E0.332618
G1 X50.0 Y55.0 Z2.49 E0.332618
G1 X45.6699 Y52.5 Z2.54 E0.332618
G1 X45.6699 Y47.5 Z2.59 E0.332618
G1 X50.0 Y45.0 Z2.64 E0.332618
G1 X54.3301 Y47.5 Z2.69 E0.332618
G1 X54.3301 Y52.5 Z2.74 E0.332618
G1 X50.0 Y55.0 Z2.79 E0.332618
G1 X45.6699 Y52.5 Z2.84 E0.332618
G1 X45.6699 Y47.5 Z2.89 E0.332618
G1 X50.0 Y45.0 Z2.94 E0.332618
G1 X54.3301 Y47.5 Z2.99 E0.332618
G1 X54.3301 Y52.5 Z3.04 E0.332618
G1 X50.0 Y55.0 Z3.09 E0.332618
G1 X45.6699 Y52.5 Z3.14 E0.332618
G1 X45.6699 Y47.5 Z3.19 E0.332618
G1 X50.0 Y45.0 Z3.24 E0.332618
G1 F500 X50.0 E0.0
G1 X54.3895 Y47.4657 Z3.25773 E0.334905
G1 X54.4488 Y52.5685 Z3.27546 E0.339463
G1 X50.0 Y55.2055 Z3.2932 E0.34402
G1 X45.4325 Y52.637 Z3.31093 E0.348577
G1 X45.3732 Y47.3287 Z3.32866 E0.353134
G1 X50.0 Y44.5889 Z3.34639 E0.357691
G1 X54.7455 Y47.2602 Z3.36413 E0.362248
G1 X54.8048 Y52.774 Z3.38186 E0.366805
G1 X50.0 Y55.6166 Z3.39959 E0.371363
G1 X45.0765 Y52.8426 Z3.41732 E0.37592
G1 X45.0172 Y47.1232 Z3.43505 E0.380477
G1 X50.0 Y44.1779 Z3.45279 E0.385034
G1 X55.1015 Y47.0547 Z3.47052 E0.389591
G1 X55.1608 Y52.9796 Z3.48825 E0.394148
G1 X50.0 Y56.0277 Z3.50598 E0.398706
G1 X44.7205 Y53.0481 Z3.52372 E0.403263
G1 X44.6612 Y46.9176 Z3.54145 E0.40782
G1 X50.0 Y43.7668 Z3.55918 E0.412377
G1 X55.4575 Y46.8491 Z3.57691 E0.416935
G1 X55.5168 Y53.1851 Z3.59465 E0.421492
G1 X50.0 Y56.4388 Z3.61238 E0.426049
G1 X44.3645 Y53.2536 Z3.63011 E0.430606
G1 X44.3052 Y46.7121 Z3.64784 E0.435164
G1 X50.0 Y43.3557 Z3.66557 E0.439721
G1 X55.8135 Y46.6436 Z3.68331 E0.444278
G1 X55.8728 Y53.3907 Z3.70104 E0.448835
G1 X50.0 Y56.8498 Z3.71877 E0.453393
G1 X44.0085 Y53.4592 Z3.7365 E0.45795
G1 X43.9492 Y46.5066 Z3.75424 E0.462507
G1 X50.0 Y42.9446 Z3.77197 E0.467064
G1 X56.1695 Y46.4381 Z3.7897 E0.471622
G1 X56.2288 Y53.5962 Z3.80743 E0.476179
G1 X50.0 Y57.2609 Z3.82516 E0.480736
G1 X43.6525 Y53.6647 Z3.8429 E0.485293
G1 X43.5932 Y46.301 Z3.86063 E0.489851
G1 X50.0 Y42.5336 Z3.87836 E0.494408
G1 X56.5255 Y46.2325 Z3.89609 E0.498965
G1 X56.5848 Y53.8017 Z3.91383 E0.503523
G1 X50.0 Y57.672 Z3.93156 E0.50808
G1 X43.2965 Y53.8702 Z3.94929 E0.512637
G1 X43.2372 Y46.0955 Z3.96702 E0.517195
G1 X50.0 Y42.1225 Z3.98476 E0.521752
G1 X56.8815 Y46.027 Z4.00249 E0.526309
G1 X56.9408 Y54.0073 Z4.02022 E0.530867
G1 X50.0 Y58.0831 Z4.03795 E0.535424
G1 X42.9405 Y54.0758 Z4.05568 E0.539981
G1 X42.8812 Y45.89 Z4.07342 E0.544538
G1 X50.0 Y41.7114 Z4.09115 E0.549096
G1 X57.2375 Y45.8215 Z4.10888 E0.553653
G1 X57.2968 Y54.2128 Z4.12661 E0.55821
G1 X50.0 Y58.4941 Z4.14435 E0.562768
G1 X42.5845 Y54.2813 Z4.16208 E0.567325
G1 X42.5252 Y45.6844 Z4.17981 E0.571882
G1 X50.0 Y41.3003 Z4.19754 E0.57644
G1 X57.5935 Y45.6159 Z4.21527 E0.580997
G1 X57.6528 Y54.4183 Z4.23301 E0.585554
G1 X50.0 Y58.9052 Z4.25074 E0.590112
G1 X42.2285 Y54.4869 Z4.26847 E0.594669
G1 X42.1692 Y45.4789 Z4.2862 E0.599226
G1 X50.0 Y40.8893 Z4.30394 E0.603784
G1 X57.9495 Y45.4104 Z4.32167 E0.608341
G1 X58.0088 Y54.6239 Z4.3394 E0.612899
G1 X50.0 Y59.3163 Z4.35713 E0.617456
G1 X41.8725 Y54.6924 Z4.37487 E0.622013
G1 X41.8132 Y45.2734 Z4.3926 E0.626571
G1 X50.0 Y40.4782 Z4.41033 E0.631128
G1 X58.3055 Y45.2048 Z4.42806 E0.635685
G1 X58.3648 Y54.8294 Z4.44579 E0.640243
G1 X50.0 Y59.7273 Z4.46353 E0.6448
G1 X41.5165 Y54.8979 Z4.48126 E0.649357
G1 X41.4572 Y45.0678 Z4.49899 E0.653915
G1 X50.0 Y40.0671 Z4.51672 E0.658472


; model: https://fullcontrol.xyz/#/models/2d37a5

; design parameters:
;   shape = Hexagon
;   nozzle_dia = 0.4
;   top_spiral_overlap_percent = 11
;   overhang_angle = 75
;   inside_out = False
;   scale_XY = 1
;   scale_Z = 1
;   heatsink_stack = False

; printer parameters:
;   printer_name = generic
;   nozzle_temp = 210
;   bed_temp = 50
;   fan_percent = 100
;   material_flow_percent = 100
;   print_speed_percent = 100